IRIDIUM 39              
1 25042U 97069D   25061.58195178  .00001339  00000+0  34788-3 0  9990
2 25042  86.3859 256.8349 0016292 307.2090  52.7626 14.48948164433784
IRIDIUM 38              
1 25043U 97069E   25061.63758982  .00000797  00000+0  25758-3 0  9999
2 25043  86.3907 278.0067 0003968  87.8895 272.2757 14.37944593430907
IRIDIUM 42              
1 25077U 97077A   25061.65270503  .00000738  00000+0  24646-3 0  9995
2 25077  86.3919 284.0443 0002731  92.0471 268.1039 14.36194690425902
IRIDIUM 44              
1 25078U 97077B   25061.61654442  .00000892  00000+0  27682-3 0  9994
2 25078  86.3901 266.2463 0003234  56.1589 303.9917 14.40069677428398
IRIDIUM 45              
1 25104U 97082A   25061.60191896  .00017816  00000+0  72337-3 0  9999
2 25104  86.3556  99.4747 0128125  11.2302 349.1749 15.17123104436101
IRIDIUM 24              
1 25105U 97082B   25061.65678622  .00000926  00000+0  27659-3 0  9993
2 25105  86.3913 125.4989 0013472  74.3950 285.8735 14.41920975428114
IRIDIUM 51              
1 25262U 98018A   25061.60481081  .00030012  00000+0  85960-3 0  9991
2 25262  86.3839 108.2627 0099935 297.6761  61.4373 15.30835073430898
IRIDIUM 57              
1 25273U 98019B   25061.40753356  .00000907  00000+0  30723-3 0  9996
2 25273  86.4024 189.9516 0002108  93.6836 266.4602 14.35762042409463
